[{"OBJECT_NAME":"JINJUSAT-1B","OBJECT_ID":"2025-052A","EPOCH":"2026-03-09T15:55:38.242848","MEAN_MOTION":15.30194857,"ECCENTRICITY":0.00055504,"INCLINATION":97.4113,"RA_OF_ASC_NODE":325.4613,"ARG_OF_PERICENTER":82.193,"MEAN_ANOMALY":277.9941,"EPHEMERIS_TYPE":0,"CLASSIFICATION_TYPE":"U","NORAD_CAT_ID":63210,"ELEMENT_SET_NO":999,"REV_AT_EPOCH":5486,"BSTAR":0.00068430401,"MEAN_MOTION_DOT":0.00019955,"MEAN_MOTION_DDOT":0},{"OBJECT_NAME":"STARLINK-34536","OBJECT_ID":"2025-144AA","EPOCH":"2026-03-09T13:52:06.322080","MEAN_MOTION":15.30210866,"ECCENTRICITY":0.0001322,"INCLINATION":53.1591,"RA_OF_ASC_NODE":181.6305,"ARG_OF_PERICENTER":122.7138,"MEAN_ANOMALY":237.399,"EPHEMERIS_TYPE":0,"CLASSIFICATION_TYPE":"U","NORAD_CAT_ID":64748,"ELEMENT_SET_NO":999,"REV_AT_EPOCH":3969,"BSTAR":0.00089985,"MEAN_MOTION_DOT":0.00026395,"MEAN_MOTION_DDOT":0}]
