JINJUSAT-1B             
1 63210U 25052A   26068.66363707  .00019955  00000+0  68430-3 0  9998
2 63210  97.4113 325.4613 0005550  82.1930 277.9941 15.30194857 54866
STARLINK-34536          
1 64748U 25144AA  26068.57785095  .00026395  00000+0  89985-3 0  9999
2 64748  53.1591 181.6305 0001322 122.7138 237.3990 15.30210866 39693
